{"type": "FeatureCollection", "features": [ {"type": "Feature", "properties": {"norad_id": 30252, "name": "FENGYUN 1C DEB", "group": "fengyun-1c-debris", "lat": 0.048859215114838345, "lon": 175.91678169859094, "alt_km": 853.9837696802942, "timestamp": "2025-12-06T16:45:42.997011+00:00", "meta": {"OBJECT_NAME": "FENGYUN 1C DEB", "OBJECT_ID": "1999-025XM", "EPOCH": "2025-12-06T07:26:59.144064", "MEAN_MOTION": 14.09695153, "ECCENTRICITY": 0.00658034, "INCLINATION": 98.7435, "RA_OF_ASC_NODE": 355.5324, "ARG_OF_PERICENTER": 260.0185, "MEAN_ANOMALY": 112.5511, "EPHEMERIS_TYPE": 0, "CLASSIFICATION_TYPE": "U", "NORAD_CAT_ID": 30252, "ELEMENT_SET_NO": 999, "REV_AT_EPOCH": 96875, "BSTAR": 0.00081883323, "MEAN_MOTION_DOT": 1.422e-05, "MEAN_MOTION_DDOT": 0}, "tle": {"line1": "1 30252U 99025XM  25340.31040676  .00001422  00000+0  81883-3 0  9997", "line2": "2 30252  98.7435 355.5324 0065803 260.0185 112.5511 14.09695153968755"}}, "geometry": {"type": "Point", "coordinates": [175.91678169859094, 0.048859215114838345]}}, {"type": "Feature", "properties": {"norad_id": 30253, "name": "FENGYUN 1C DEB", "group": "fengyun-1c-debris", "lat": 46.040432486537334, "lon": 60.078195431030174, "alt_km": 823.3039092192475, "timestamp": "2025-12-06T16:45:42.997021+00:00", "meta": {"OBJECT_NAME": "FENGYUN 1C DEB", "OBJECT_ID": "1999-025XN", "EPOCH": "2025-12-06T01:23:10.053600", "MEAN_MOTION": 13.73145676, "ECCENTRICITY": 0.02219972, "INCLINATION": 98.7529, "RA_OF_ASC_NODE": 68.6847, "ARG_OF_PERICENTER": 59.1076, "MEAN_ANOMALY": 62.8879, "EPHEMERIS_TYPE": 0, "CLASSIFICATION_TYPE": "U", "NORAD_CAT_ID": 30253, "ELEMENT_SET_NO": 999, "REV_AT_EPOCH": 93922, "BSTAR": 0.0027713639, "MEAN_MOTION_DOT": 3.025e-05, "MEAN_MOTION_DDOT": 0}, "tle": {"line1": "1 30253U 99025XN  25340.05775525  .00003025  00000+0  27714-2 0  9990", "line2": "2 30253  98.7529  68.6847 0221997  59.1076  62.8879 13.73145676939220"}}, "geometry": {"type": "Point", "coordinates": [60.078195431030174, 46.040432486537334]}}, {"type": "Feature", "properties": {"norad_id": 30257, "name": "FENGYUN 1C DEB", "group": "fengyun-1c-debris", "lat": -0.5588827444730848, "lon": 159.34614510444732, "alt_km": 844.4542267470633, "timestamp": "2025-12-06T16:45:42.997031+00:00", "meta": {"OBJECT_NAME": "FENGYUN 1C DEB", "OBJECT_ID": "1999-025XS", "EPOCH": "2025-12-06T05:59:53.181312", "MEAN_MOTION": 14.09718782, "ECCENTRICITY": 0.00595847, "INCLINATION": 98.7495, "RA_OF_ASC_NODE": 338.9963, "ARG_OF_PERICENTER": 117.3203, "MEAN_ANOMALY": 307.6841, "EPHEMERIS_TYPE": 0, "CLASSIFICATION_TYPE": "U", "NORAD_CAT_ID": 30257, "ELEMENT_SET_NO": 999, "REV_AT_EPOCH": 97126, "BSTAR": 0.00022345237, "MEAN_MOTION_DOT": 3.56e-06, "MEAN_MOTION_DDOT": 0}, "tle": {"line1": "1 30257U 99025XS  25340.24992108  .00000356  00000+0  22345-3 0  9993", "line2": "2 30257  98.7495 338.9963 0059584 117.3203 307.6841 14.09718782971261"}}, "geometry": {"type": "Point", "coordinates": [159.34614510444732, -0.5588827444730848]}}, {"type": "Feature", "properties": {"norad_id": 30259, "name": "FENGYUN 1C DEB", "group": "fengyun-1c-debris", "lat": 40.80339162889506, "lon": -175.49929020628193, "alt_km": 786.2415968334881, "timestamp": "2025-12-06T16:45:42.997041+00:00", "meta": {"OBJECT_NAME": "FENGYUN 1C DEB", "OBJECT_ID": "1999-025XU", "EPOCH": "2025-12-06T02:24:04.314816", "MEAN_MOTION": 14.51451593, "ECCENTRICITY": 0.02422395, "INCLINATION": 98.7616, "RA_OF_ASC_NODE": 191.5276, "ARG_OF_PERICENTER": 288.511, "MEAN_ANOMALY": 225.6418, "EPHEMERIS_TYPE": 0, "CLASSIFICATION_TYPE": "U", "NORAD_CAT_ID": 30259, "ELEMENT_SET_NO": 999, "REV_AT_EPOCH": 99378, "BSTAR": 0.00081279039, "MEAN_MOTION_DOT": 4.697e-05, "MEAN_MOTION_DDOT": 0}, "tle": {"line1": "1 30259U 99025XU  25340.10004994  .00004697  00000+0  81279-3 0  9990", "line2": "2 30259  98.7616 191.5276 0242239 288.5110 225.6418 14.51451593993788"}}, "geometry": {"type": "Point", "coordinates": [-175.49929020628193, 40.80339162889506]}}, {"type": "Feature", "properties": {"norad_id": 30263, "name": "FENGYUN 1C DEB", "group": "fengyun-1c-debris", "lat": 8.913225902896455, "lon": -82.58464097448345, "alt_km": 984.5808296284022, "timestamp": "2025-12-06T16:45:42.997052+00:00", "meta": {"OBJECT_NAME": "FENGYUN 1C DEB", "OBJECT_ID": "1999-025XY", "EPOCH": "2025-12-05T07:41:19.862592", "MEAN_MOTION": 14.01440671, "ECCENTRICITY": 0.01448467, "INCLINATION": 98.9355, "RA_OF_ASC_NODE": 94.652, "ARG_OF_PERICENTER": 20.9028, "MEAN_ANOMALY": 40.5319, "EPHEMERIS_TYPE": 0, "CLASSIFICATION_TYPE": "U", "NORAD_CAT_ID": 30263, "ELEMENT_SET_NO": 999, "REV_AT_EPOCH": 95921, "BSTAR": 0.0015222279, "MEAN_MOTION_DOT": 2.475e-05, "MEAN_MOTION_DDOT": 0}, "tle": {"line1": "1 30263U 99025XY  25339.32036878  .00002475  00000+0  15222-2 0  9999", "line2": "2 30263  98.9355  94.6520 0144846  20.9028  40.5319 14.01440671959215"}}, "geometry": {"type": "Point", "coordinates": [-82.58464097448345, 8.913225902896455]}}, {"type": "Feature", "properties": {"norad_id": 30264, "name": "FENGYUN 1C DEB", "group": "fengyun-1c-debris", "lat": -43.3288043424454, "lon": -152.70132959797084, "alt_km": 860.6468696926559, "timestamp": "2025-12-06T16:45:42.997062+00:00", "meta": {"OBJECT_NAME": "FENGYUN 1C DEB", "OBJECT_ID": "1999-025XZ", "EPOCH": "2025-12-06T02:11:25.003104", "MEAN_MOTION": 14.07597302, "ECCENTRICITY": 0.01067401, "INCLINATION": 98.9702, "RA_OF_ASC_NODE": 35.2645, "ARG_OF_PERICENTER": 306.1347, "MEAN_ANOMALY": 84.0228, "EPHEMERIS_TYPE": 0, "CLASSIFICATION_TYPE": "U", "NORAD_CAT_ID": 30264, "ELEMENT_SET_NO": 999, "REV_AT_EPOCH": 96464, "BSTAR": 0.0021002423, "MEAN_MOTION_DOT": 3.69e-05, "MEAN_MOTION_DDOT": 0}, "tle": {"line1": "1 30264U 99025XZ  25340.09126161  .00003690  00000+0  21002-2 0  9994", "line2": "2 30264  98.9702  35.2645 0106740 306.1347  84.0228 14.07597302964640"}}, "geometry": {"type": "Point", "coordinates": [-152.70132959797084, -43.3288043424454]}}, {"type": "Feature", "properties": {"norad_id": 30265, "name": "FENGYUN 1C DEB", "group": "fengyun-1c-debris", "lat": -38.870246590225776, "lon": -97.49293669777896, "alt_km": 724.915378969512, "timestamp": "2025-12-06T16:45:42.997072+00:00", "meta": {"OBJECT_NAME": "FENGYUN 1C DEB", "OBJECT_ID": "1999-025YA", "EPOCH": "2025-12-02T06:30:17.309088", "MEAN_MOTION": 14.58254763, "ECCENTRICITY": 0.0028484, "INCLINATION": 98.6642, "RA_OF_ASC_NODE": 84.9553, "ARG_OF_PERICENTER": 46.6011, "MEAN_ANOMALY": 342.9342, "EPHEMERIS_TYPE": 0, "CLASSIFICATION_TYPE": "U", "NORAD_CAT_ID": 30265, "ELEMENT_SET_NO": 999, "REV_AT_EPOCH": 98249, "BSTAR": 0.0027427, "MEAN_MOTION_DOT": 0.00012711, "MEAN_MOTION_DDOT": 0}, "tle": {"line1": "1 30265U 99025YA  25336.27103367  .00012711  00000+0  27427-2 0  9994", "line2": "2 30265  98.6642  84.9553 0028484  46.6011 342.9342 14.58254763982495"}}, "geometry": {"type": "Point", "coordinates": [-97.49293669777896, -38.870246590225776]}}, {"type": "Feature", "properties": {"norad_id": 30266, "name": "FENGYUN 1C DEB", "group": "fengyun-1c-debris", "lat": 78.38410166609867, "lon": -84.3907542311626, "alt_km": 776.5123316498357, "timestamp": "2025-12-06T16:45:42.997082+00:00", "meta": {"OBJECT_NAME": "FENGYUN 1C DEB", "OBJECT_ID": "1999-025YB", "EPOCH": "2025-12-06T02:52:26.812128", "MEAN_MOTION": 14.1503436, "ECCENTRICITY": 0.00832275, "INCLINATION": 99.0429, "RA_OF_ASC_NODE": 44.2425, "ARG_OF_PERICENTER": 84.8034, "MEAN_ANOMALY": 306.1341, "EPHEMERIS_TYPE": 0, "CLASSIFICATION_TYPE": "U", "NORAD_CAT_ID": 30266, "ELEMENT_SET_NO": 999, "REV_AT_EPOCH": 96696, "BSTAR": 0.0022767157, "MEAN_MOTION_DOT": 4.517e-05, "MEAN_MOTION_DDOT": 0}, "tle": {"line1": "1 30266U 99025YB  25340.11975477  .00004517  00000+0  22767-2 0  9999", "line2": "2 30266  99.0429  44.2425 0083227  84.8034 306.1341 14.15034360966963"}}, "geometry": {"type": "Point", "coordinates": [-84.3907542311626, 78.38410166609867]}}, {"type": "Feature", "properties": {"norad_id": 30267, "name": "FENGYUN 1C DEB", "group": "fengyun-1c-debris", "lat": -5.720546529061137, "lon": -129.06890801417424, "alt_km": 805.7268980086019, "timestamp": "2025-12-06T16:45:42.997093+00:00", "meta": {"OBJECT_NAME": "FENGYUN 1C DEB", "OBJECT_ID": "1999-025YC", "EPOCH": "2025-12-06T04:04:41.204640", "MEAN_MOTION": 14.23536317, "ECCENTRICITY": 0.00585768, "INCLINATION": 98.8502, "RA_OF_ASC_NODE": 51.2939, "ARG_OF_PERICENTER": 261.961, "MEAN_ANOMALY": 97.4919, "EPHEMERIS_TYPE": 0, "CLASSIFICATION_TYPE": "U", "NORAD_CAT_ID": 30267, "ELEMENT_SET_NO": 999, "REV_AT_EPOCH": 97201, "BSTAR": 0.0025733991, "MEAN_MOTION_DOT": 5.919e-05, "MEAN_MOTION_DDOT": 0}, "tle": {"line1": "1 30267U 99025YC  25340.16992135  .00005919  00000+0  25734-2 0  9999", "line2": "2 30267  98.8502  51.2939 0058576 261.9610  97.4919 14.23536317972010"}}, "geometry": {"type": "Point", "coordinates": [-129.06890801417424, -5.720546529061137]}}, {"type": "Feature", "properties": {"norad_id": 30270, "name": "FENGYUN 1C DEB", "group": "fengyun-1c-debris", "lat": 78.63452648653939, "lon": -55.03119418508638, "alt_km": 847.9424032435645, "timestamp": "2025-12-06T16:45:42.997103+00:00", "meta": {"OBJECT_NAME": "FENGYUN 1C DEB", "OBJECT_ID": "1999-025YF", "EPOCH": "2025-12-06T01:09:27.635328", "MEAN_MOTION": 14.11266373, "ECCENTRICITY": 0.00070786, "INCLINATION": 98.7024, "RA_OF_ASC_NODE": 353.9763, "ARG_OF_PERICENTER": 177.4362, "MEAN_ANOMALY": 203.9051, "EPHEMERIS_TYPE": 0, "CLASSIFICATION_TYPE": "U", "NORAD_CAT_ID": 30270, "ELEMENT_SET_NO": 999, "REV_AT_EPOCH": 97267, "BSTAR": 0.00023045576, "MEAN_MOTION_DOT": 3.74e-06, "MEAN_MOTION_DDOT": 0}, "tle": {"line1": "1 30270U 99025YF  25340.04823652  .00000374  00000+0  23046-3 0  9992", "line2": "2 30270  98.7024 353.9763 0007078 177.4362 203.9051 14.11266373972677"}}, "geometry": {"type": "Point", "coordinates": [-55.03119418508638, 78.63452648653939]}}]}